KUIPER-00136            
1 65962U 25228R   25314.23174370  .00052711  00000+0  15281-2 0  9993
2 65962  51.8796 177.1782 0004699 235.7261 124.3280 15.35019913  5421
KUIPER-00137            
1 65963U 25228S   25314.04277142  .00032164  00000+0  94765-3 0  9999
2 65963  51.8789 178.1597 0005736 249.3069 110.7302 15.34734547  5395
KUIPER-00138            
1 65964U 25228T   25314.17636063  .00047045  00000+0  13875-2 0  9991
2 65964  51.8777 177.5477 0005848 254.9950 105.0388 15.34523890  5419
KUIPER-00140            
1 65965U 25228U   25314.04688202  .00017295  00000+0  52088-3 0  9994
2 65965  51.8776 178.1835 0005143 254.8108 105.2309 15.34422190  5399
KUIPER-00141            
1 65966U 25228V   25314.23455544  .00049886  00000+0  14481-2 0  9992
2 65966  51.8777 177.1871 0005632 237.2750 122.7693 15.34997370  5422
KUIPER-00146            
1 65967U 25228W   25314.62605415  .00061093  00000+0  17803-2 0  9995
2 65967  51.8780 175.3188 0005969 234.3979 125.6451 15.34783376  5481
KUIPER-00149            
1 65968U 25228X   25314.62254108  .00057413  00000+0  16560-2 0  9995
2 65968  51.8773 175.2899 0005185 232.3786 127.6730 15.35138676  5486
KUIPER-00154            
1 65969U 25228Y   25314.62132850  .00055489  00000+0  16026-2 0  9993
2 65969  51.8745 175.2822 0005456 220.2768 139.7814 15.35110945  5485
